[{"OBJECT_NAME":"STARLINK-6186","OBJECT_ID":"2023-083AJ","EPOCH":"2026-03-09T22:00:01.999584","MEAN_MOTION":15.0835736,"ECCENTRICITY":0.00020034,"INCLINATION":43.001,"RA_OF_ASC_NODE":67.6829,"ARG_OF_PERICENTER":267.1506,"MEAN_ANOMALY":66.6088,"EPHEMERIS_TYPE":0,"CLASSIFICATION_TYPE":"U","NORAD_CAT_ID":56908,"ELEMENT_SET_NO":999,"REV_AT_EPOCH":577,"BSTAR":0.0045731137,"MEAN_MOTION_DOT":0.00072792,"MEAN_MOTION_DDOT":0},{"OBJECT_NAME":"CZ-6A DEB","OBJECT_ID":"2024-140RN","EPOCH":"2026-03-09T09:36:23.350464","MEAN_MOTION":14.99974811,"ECCENTRICITY":0.0047719,"INCLINATION":88.1445,"RA_OF_ASC_NODE":217.6461,"ARG_OF_PERICENTER":172.1525,"MEAN_ANOMALY":188.0467,"EPHEMERIS_TYPE":0,"CLASSIFICATION_TYPE":"U","NORAD_CAT_ID":61168,"ELEMENT_SET_NO":999,"REV_AT_EPOCH":8322,"BSTAR":0.0063622011,"MEAN_MOTION_DOT":0.00081758,"MEAN_MOTION_DDOT":0}]
